STARLINK-36940          
1 68027U 26040N   26090.13653389  .00181029  00000+0  11865-2 0  9993
2 68027  97.2857  39.6813 0002150 112.6232 247.5261 15.75239100  4732
STARLINK-36253          
1 68028U 26040P   26090.25002315  .00132403  00000+0  40485-2 0  9996
2 68028  97.2858  39.0576 0002392  88.7223 258.7274 15.33315541  5990
STARLINK-36944          
1 68029U 26040Q   26088.36563238 -.00673213  00000+0 -50411-2 0  9993
2 68029  97.2866  37.7971 0001972  82.1007 278.0482 15.74430961  4450
STARLINK-36942          
1 68030U 26040R   26088.11070956  .00278157  00000+0  17986-2 0  9994
2 68030  97.2859  37.5337 0003468 121.0523 239.1083 15.75277690  4416
STARLINK-36913          
1 68031U 26040S   26090.25002315 -.01816301  00000+0 -33125-1 0  9991
2 68031  97.2851  39.6945 0001526 115.0916 278.8942 15.52778780  5897
STARLINK-36935          
1 68032U 26040T   26088.10506250  .00284329  00000+0  18378-2 0  9990
2 68032  97.2868  37.5430 0001893 100.6895 259.4584 15.75272592  4414
STARLINK-36947          
1 68033U 26040U   26090.14246203 -.00224875  00000+0 -16316-2 0  9999
2 68033  97.2872  39.6695 0001558 326.4554  33.6612 15.73950568  4737
STARLINK-36939          
1 68034U 26040V   26090.25002315 -.01806485  00000+0 -30730-1 0  9995
2 68034  97.2856  39.7181 0001473  93.0587 355.5352 15.54667798  5894
STARLINK-36943          
1 68035U 26040W   26089.66668981  .00008484  00000+0  57736-4 0  9994
2 68035  97.2853  39.1846 0001431  92.0994 115.5040 15.75172450  5852
STARLINK-36906          
1 68036U 26040X   26090.25002315 -.01803031  00000+0 -32302-1 0  9998
2 68036  97.2850  39.7058 0001372  99.0792 319.8653 15.53245989  5895
STARLINK-36388          
1 68037U 26040Y   26089.12221551  .00345166  00000+0  22192-2 0  9992
2 68037  97.2860  38.6097 0002488  99.3643 260.7904 15.75226231  4575
STARLINK-36895          
1 68038U 26040Z   26090.00002315 -.01971476  00000+0 -15440-1 0  9996
2 68038  97.2859  39.5237 0001887 107.4165 175.0741 15.74915468  5857
